SL-14 R/B               
1 20262U 89080C   25299.13623260  .00000261  00000+0  69687-4 0  9995
2 20262  82.5899 259.5720 1231433 132.3105 238.9204 12.50367114643334
DELTA 1 R/B             
1 20323U 89089B   25299.11142231  .00000442  00000+0  11822-3 0  9992
2 20323  97.0808 162.8863 0068923 186.6691 173.3596 14.50513612876220
ARIANE 40 R/B           
1 20443U 90005H   25299.13455184  .00000431  00000+0  15102-3 0  9994
2 20443  98.3307 358.6429 0009088 246.7759 113.2473 14.39743464873449
DELTA 2 R/B(1)          
1 20453U 90008B   25299.12967002  .00034308  00000+0  62556-3 0  9999
2 20453  35.6078 326.9585 0118487 105.4540 255.9313 15.40968801905274
COSMOS 2058             
1 20465U 90010A   25299.11800721  .00004349  00000+0  26597-3 0  9995
2 20465  82.4707 179.8658 0011280  73.6370 286.6098 15.09955317921926
SL-14 R/B               
1 20466U 90010B   25299.19143719  .00000696  00000+0  81682-4 0  9999
2 20466  82.5053  33.6915 0020476  27.1210 333.1069 14.83405724908541
SL-14 R/B               
1 20511U 90018B   25299.14738171  .00000558  00000+0  67345-4 0  9992
2 20511  82.5230 348.8499 0016696 169.7955 190.3601 14.81981422902658
HST                     
1 20580U 90037B   25299.16566278  .00009092  00000+0  32366-3 0  9994
2 20580  28.4678 236.0848 0002162  65.6036 294.4785 15.27149205752717
SL-16 R/B               
1 20625U 90046B   25299.16965507  .00000269  00000+0  16324-3 0  9995
2 20625  70.9998 220.4196 0013167 157.4211 202.7493 14.14990295829361
COSMOS 2084             
1 20663U 90055A   25299.12135294  .00005752  00000+0  41506-3 0  9997
2 20663  62.7909  74.1926 0039800 169.1288 191.0682 15.04572219916061
SL-6 R/B(2)             
1 20666U 90055D   25299.12768318  .00002775  00000+0  22103-3 0  9993
2 20666  62.7849 351.1515 0010746 264.8710  95.1163 15.02728395917964
SL-8 R/B                
1 20775U 90078B   25299.14881499  .00018319  00000+0  56772-3 0  9997
2 20775  82.9087  11.8057 0383935 104.8021 259.6055 14.83592729789316
SL-8 R/B                
1 21088U 91006B   25299.16336699  .00000181  00000+0  16660-3 0  9996
2 21088  82.9392 270.1071 0023718  54.1595 316.6897 13.77478807745550
OKEAN-3                 
1 21397U 91039A   25298.97549537  .00003853  00000+0  27894-3 0  9990
2 21397  82.5145 107.2626 0015722  71.4455 288.8478 15.03641598844784
COSMOS 2151             
1 21422U 91042A   25299.17958948  .00003108  00000+0  25119-3 0  9997
2 21422  82.4992 213.3175 0013246 146.4947 213.7117 14.99426550843035
SL-14 R/B               
1 21423U 91042B   25299.17238196  .00000547  00000+0  66415-4 0  9993
2 21423  82.4944 346.3325 0016155 327.6707  32.3515 14.81676547833159
ERS-1                   
1 21574U 91050A   25299.04867030  .00000462  00000+0  16305-3 0  9998
2 21574  98.7934 308.9031 0031065 240.8606 118.9470 14.39309999796363
ARIANE 40 R/B           
1 21610U 91050F   25299.14238551  .00000474  00000+0  15493-3 0  9990
2 21610  98.2234 351.2748 0004252 115.0373 245.1260 14.42752790799593
INTERCOSMOS 25          
1 21819U 91086A   25299.16051605  .00001245  00000+0  23842-3 0  9999
2 21819  82.6090  31.3245 1489022  46.9093 324.7290 12.11534418480394
SL-8 R/B                
1 21876U 92008B   25299.11302794  .00000116  00000+0  10299-3 0  9998
2 21876  82.9307   7.8668 0035523 148.8065 228.9933 13.75945380690916
SL-8 R/B                
1 21938U 92020B   25299.13655332  .00000058  00000+0  44952-4 0  9991
2 21938  82.9286 253.6669 0028084 315.7907 171.7767 13.75519113682638
USA 81                  
1 21949U 92023A   25299.17969931  .00000300  00000+0  10374-3 0  9993
2 21949  85.0117 208.9953 0002767  91.8989 268.2521 14.32300877 75532
COSMOS 2219             
1 22219U 92076A   25299.11704368  .00000384  00000+0  22652-3 0  9991
2 22219  71.0588 299.3815 0016600  41.0918 319.1451 14.14052264699355
SL-16 R/B               
1 22220U 92076B   25298.92933037 -.00000146  00000+0 -48605-4 0  9993
2 22220  70.9974 112.2404 0014925 296.0732 170.7339 14.16828893702740
COSMOS 2221             
1 22236U 92080A   25299.04866794  .00003344  00000+0  29960-3 0  9997
2 22236  82.5062  47.9521 0013251 286.2090  73.7673 14.95472392760661
SL-16 R/B               
1 22285U 92093B   25299.11159990 -.00000220  00000+0 -88595-4 0  9998
2 22285  71.0203 286.7754 0003768 188.6599 171.4459 14.15419062694118
COSMOS 2228             
1 22286U 92094A   25299.15198058  .00002765  00000+0  24090-3 0  9995
2 22286  82.5209   6.0550 0018985  39.0460 321.2128 14.96416290755937
SL-16 R/B               
1 22566U 93016B   25298.99727997 -.00000030  00000+0  91287-5 0  9990
2 22566  71.0061 138.0741 0009962 181.8979 178.2107 14.15280394683113
COSMOS 2242             
1 22626U 93024A   25299.21192352  .00003165  00000+0  28053-3 0  9993
2 22626  82.5220  35.2522 0017328  41.6498 318.6040 14.95813944760284
SL-16 R/B               
1 22803U 93059B   25299.15963437  .00000206  00000+0  12567-3 0  9997
2 22803  70.9892 294.8194 0015262  49.8868 310.3590 14.17201713660479
ARIANE 40 R/B           
1 22830U 93061H   25299.13079414  .00000349  00000+0  14403-3 0  9990
2 22830  98.5130   5.5141 0009984 327.6270  32.4300 14.32747591674839
COSMOS 2278             
1 23087U 94023A   25299.14981560 -.00000161  00000+0 -59537-4 0  9991
2 23087  71.0510  96.5722 0010868 242.0486 117.9537 14.14331565625780
SL-16 R/B               
1 23088U 94023B   25299.11659166  .00000324  00000+0  19185-3 0  9996
2 23088  71.0019 353.4989 0002560 184.6299 175.4801 14.14988572627059
SL-16 R/B               
1 23343U 94074B   25299.12282479  .00000670  00000+0  96895-4 0  9994
2 23343  97.7266 330.3046 0005390 307.7095 119.6592 14.79207589667353
SL-16 R/B               
1 23405U 94077B   25299.15065058 -.00000211  00000+0 -83224-4 0  9996
2 23405  70.9814 275.5271 0003380 321.1830  38.9049 14.15539569597198
ARIANE 40+ R/B          
1 23561U 95021B   25299.12797550  .00000441  00000+0  15496-3 0  9993
2 23561  98.4703   7.2799 0006875 175.9898 241.6901 14.39639513599883
SL-16 R/B               
1 23705U 95058B   25298.86829931  .00000100  00000+0  75430-4 0  9999
2 23705  71.0184 103.3065 0013914 317.7020  42.3029 14.15467548548772
SL-16 R/B               
1 24298U 96051B   25298.89606664 -.00000113  00000+0 -34463-4 0  9997
2 24298  70.7578 100.5480 0016898 323.1803  36.8154 14.12392640502614
ORBVIEW 2 (SEASTAR)     
1 24883U 97037A   25299.16590786  .00000520  00000+0  19732-3 0  9991
2 24883  98.8437  95.0517 0003222  95.4925 264.6627 14.35362629489179
SL-16 R/B               
1 25400U 98043G   25299.08618579  .00000137  00000+0  76457-4 0  9999
2 25400  98.8038 246.6579 0010705  48.9990 311.2113 14.26007420419800
SL-16 R/B               
1 25407U 98045B   25299.15730088  .00000092  00000+0  70445-4 0  9997
2 25407  71.0084 104.4879 0009298 239.1833 120.8376 14.16161670408057
ISS (ZARYA)             
1 25544U 98067A   25299.20038897  .00014793  00000+0  27153-3 0  9998
2 25544  51.6346  17.8374 0004626 339.6878  20.3926 15.49479143535483
CZ-4B R/B               
1 25732U 99025C   25299.12761402  .00000104  00000+0  70939-4 0  9990
2 25732  98.6841 341.4546 0037318  13.6097  45.5517 14.18226210369093
OKEAN-O                 
1 25860U 99039A   25299.12871610  .00001007  00000+0  13989-3 0  9994
2 25860  97.9670 355.2277 0001870  80.8702 279.2722 14.80041727414489
SL-16 R/B               
1 25861U 99039B   25299.16987068  .00000870  00000+0  11785-3 0  9993
2 25861  98.0195 353.3020 0014291 338.9385  21.1237 14.81484928416947
DELTA 2 R/B             
1 25876U 99041E   25298.77001804  .00001095  00000+0  21497-3 0  9994
2 25876  51.7631 119.8978 0504499 310.3762  45.4145 14.11240831343973
HELIOS 1B               
1 25977U 99064A   25299.16620249  .00002354  00000+0  26936-3 0  9997
2 25977  98.1758 192.4297 0002279 107.4255 252.7209 14.86991284665262
TERRA                   
1 25994U 99068A   25299.13093559  .00000662  00000+0  14440-3 0  9992
2 25994  97.9818 352.5441 0001147 223.2817 189.5362 14.60869748375434
SL-16 R/B               
1 26070U 00006B   25299.20853654  .00000147  00000+0  98978-4 0  9997
2 26070  71.0043  20.5976 0015699  18.8053 341.3646 14.15794125329523
TITAN 4B R/B            
1 26474U 00047B   25299.13686781  .00005972  00000+0  38450-3 0  9996
2 26474  67.9910  58.4946 0043930 198.9895 160.9619 15.08241319372616
ENVISAT                 
1 27386U 02009A   25299.12636931  .00000213  00000+0  83004-4 0  9999
2 27386  98.3517 251.0941 0001331  86.0684 285.8526 14.38972535239820
IDEFIX & ARIANE 42P R/B 
1 27422U 02021B   25298.82450457  .00000446  00000+0  18632-3 0  9999
2 27422  98.5708 234.1570 0010888 221.0611 138.9753 14.30897490224735
AQUA                    
1 27424U 02022A   25299.19343088  .00001635  00000+0  33851-3 0  9995
2 27424  98.3962 259.3243 0001505  53.3659  61.7678 14.61637001249085
CZ-4B R/B               
1 27432U 02024C   25299.18391948  .00000080  00000+0  64046-4 0  9997
2 27432  98.9071 348.1042 0050857  45.8479  22.2299 14.14513642210222
MIDORI II (ADEOS-II)    
1 27597U 02056A   25299.10870522  .00000438  00000+0  19046-3 0  9992
2 27597  98.7553 251.8355 0001955  58.2317 301.9054 14.29155993191072
H-2A R/B                
1 27601U 02056E   25299.14220948  .00000423  00000+0  16305-3 0  9992
2 27601  98.2988 259.8137 0069745 201.6793 168.5019 14.33625758194835
CZ-4B R/B               
1 28059U 03049C   25298.93475661  .00000668  00000+0  16543-3 0  9998
2 28059  98.6753 283.7014 0047144 283.4152  76.1791 14.54840513167004
CZ-2C R/B               
1 28222U 04012C   25299.19929567  .00033725  00000+0  56780-3 0  9996
2 28222  97.7498 348.0330 0021062  85.3502 275.0154 15.51393850183340
SL-16 R/B               
1 28353U 04021B   25299.03124174 -.00000254  00000+0 -10736-3 0  9999
2 28353  70.9992 155.0828 0007392 252.9786 107.0527 14.14572728103791
